NORAD_CAT_ID,OBJECT_NAME,OBJECT_TYPE,EPOCH,MEAN_MOTION,ECCENTRICITY,INCLINATION,RA_OF_ASC_NODE,ARG_OF_PERICENTER,MEAN_ANOMALY,BSTAR,MEAN_MOTION_DOT,MEAN_MOTION_DDOT,TLE_LINE0,TLE_LINE1,TLE_LINE2,SEMIMAJOR_AXIS,PERIOD,APOGEE,PERIGEE,DECAYED
52871.0,STARLINK-4207,PAYLOAD,2022-08-29 16:00:00,15.72139755,0.0003372,53.2172,42.8729,337.5518,48.3364,-0.0088336,-0.0106569,0.0,0 STARLINK-4207,1 52871U 22062AT  22241.66667824 -.01065690  00000-0 -88336-2 0  9990,2 52871  53.2172  42.8729 0003372 337.5518  48.3364 15.72139755 12011,6730.92,91.595,355.05400000000014,350.515,0.0
52871.0,STARLINK-4207,PAYLOAD,2022-08-29 22:00:00,15.71558515,0.0003591,53.2173,41.6359,357.3456,4.0187,-0.0089097,-0.01050326,0.0,0 STARLINK-4207,1 52871U 22062AT  22241.91667824 -.01050326  00000-0 -89097-2 0  9993,2 52871  53.2173  41.6359 0003591 357.3456   4.0187 15.71558515  1313,6732.579000000002,91.629,356.862,352.027,0.0
52871.0,STARLINK-4207,PAYLOAD,2022-08-30 14:00:01,15.70040255,0.0004557999999999,53.2176,38.3422,358.545,174.8958,-0.0095102,-0.01051779,0.0,0 STARLINK-4207,1 52871U 22062AT  22242.58334491 -.01051779  00000-0 -95102-2 0  9995,2 52871  53.2176  38.3422 0004558 358.5450 174.8958 15.70040255 12153,6736.919,91.717,361.855,355.713,0.0
52871.0,STARLINK-4207,PAYLOAD,2022-08-30 22:00:00,15.6934304,0.0001644,53.2166,36.7025,297.5694,320.5006,-0.010533,-0.01121374,0.0,0 STARLINK-4207,1 52871U 22062AT  22242.91667824 -.01121374  00000-0 -10533-1 0  9994,2 52871  53.2166  36.7025 0001644 297.5694 320.5006 15.69343040  1303,6738.9140000000025,91.758,361.887,359.671,0.0
52871.0,STARLINK-4207,PAYLOAD,2022-08-31 14:00:01,15.67762802,0.0001488,53.2174,33.4177,38.6853,26.0236,-0.010472,-0.01051906,0.0,0 STARLINK-4207,1 52871U 22062AT  22243.58334491 -.01051906  00000-0 -10472-1 0  9994,2 52871  53.2174  33.4177 0001488  38.6853  26.0236 15.67762802  1303,6743.441999999999,91.851,366.31,364.30300000000005,0.0
52871.0,STARLINK-4207,PAYLOAD,2022-08-31 20:00:01,15.6719143,0.0001034,53.2174,32.1903,73.7463,322.4963,-0.010688,-0.0104887,0.0,0 STARLINK-4207,1 52871U 22062AT  22243.83334491 -.01048870  00000-0 -10688-1 0  9997,2 52871  53.2174  32.1903 0001034  73.7463 322.4963 15.67191430 12350,6745.081,91.884,367.643,366.24800000000016,0.0
52871.0,STARLINK-4207,PAYLOAD,2022-08-31 22:00:00,15.66987337,0.0001262,53.2165,31.7825,59.0955,87.5502,-0.0105569999999999,-0.01029605,0.0,0 STARLINK-4207,1 52871U 22062AT  22243.91667824 -.01029605  00000-0 -10557-1 0  9995,2 52871  53.2165  31.7825 0001262  59.0955  87.5502 15.66987337  1303,6745.666,91.896,368.383,366.68,0.0
52871.0,STARLINK-4207,PAYLOAD,2022-09-01 14:00:01,15.65507218,0.0001084,53.2173,28.511,74.3412,233.4749,-0.0118269999999999,-0.01097368,0.0,0 STARLINK-4207,1 52871U 22062AT  22244.58335648 -.01097368  00000-0 -11827-1 0  9997,2 52871  53.2173  28.5110 0001084  74.3412 233.4749 15.65507218 12473,6749.917,91.983,372.514,371.051,0.0
52871.0,STARLINK-4207,PAYLOAD,2022-09-01 22:00:00,15.64724638,0.0001072,53.2171,26.8781,62.2872,324.6684,-0.011816,-0.01049222,0.0,0 STARLINK-4207,1 52871U 22062AT  22244.91667824 -.01049222  00000-0 -11816-1 0  9992,2 52871  53.2171  26.8781 0001072  62.2872 324.6684 15.64724638  1306,6752.168000000002,92.029,374.757,373.309,0.0
52871.0,STARLINK-4207,PAYLOAD,2022-09-02 14:00:01,15.63202399,0.0001428,53.2173,23.6183,54.5581,128.0471,-0.012492,-0.0104462,0.0,0 STARLINK-4207,1 52871U 22062AT  22245.58334491 -.01044620  00000-0 -12492-1 0  9995,2 52871  53.2173  23.6183 0001428  54.5581 128.0471 15.63202399  1309,6756.551,92.119,379.38,377.451,0.0
52871.0,STARLINK-4207,PAYLOAD,2022-09-02 22:00:01,15.62446268,0.0001147,53.217,21.9921,76.6015,182.5219,-0.012934,-0.01065505,0.0,0 STARLINK-4207,1 52871U 22062AT  22245.91668981 -.01065505  00000-0 -12934-1 0  9992,2 52871  53.2170  21.9921 0001147  76.6015 182.5219 15.62446268  1301,6758.73,92.163,381.37,379.82,0.0
52871.0,STARLINK-4207,PAYLOAD,2022-09-03 00:00:00,15.62259563,0.0001205999999999,53.2167,21.5864,48.8478,319.1798,-0.013092,-0.01070207,0.0,0 STARLINK-4207,1 52871U 22062AT  22246.00001157 -.01070207  00000-0 -13092-1 0  9990,2 52871  53.2167  21.5864 0001206  48.8478 319.1798 15.62259563 12693,6759.269,92.174,381.949,380.319,0.0
52871.0,STARLINK-4207,PAYLOAD,2022-09-03 14:00:01,15.60927238,0.0001361999999999,53.2174,18.7437,45.7533,3.4772,-0.013725,-0.01065611,0.0,0 STARLINK-4207,1 52871U 22062AT  22246.58334491 -.01065611  00000-0 -13725-1 0  9999,2 52871  53.2174  18.7437 0001362  45.7533   3.4772 15.60927238  1306,6763.114000000001,92.253,385.901,384.0580000000001,0.0
52871.0,STARLINK-4207,PAYLOAD,2022-09-03 22:00:00,15.60166607,0.0001459,53.2166,17.1243,48.0029,74.9434,-0.014094,-0.01062832,0.0,0 STARLINK-4207,1 52871U 22062AT  22246.91667824 -.01062832  00000-0 -14094-1 0  9997,2 52871  53.2166  17.1243 0001459  48.0029  74.9434 15.60166607 12831,6765.312,92.298,388.164,386.19,0.0
52871.0,STARLINK-4207,PAYLOAD,2022-09-04 14:00:01,15.58662926,0.0001318,53.2173,13.8871,60.6636,207.0352,-0.015225,-0.0108187,0.0,0 STARLINK-4207,1 52871U 22062AT  22247.58335648 -.01081870  00000-0 -15225-1 0  9997,2 52871  53.2173  13.8871 0001318  60.6636 207.0352 15.58662926  1307,6769.663000000001,92.387,392.42,390.636,0.0
52871.0,STARLINK-4207,PAYLOAD,2022-09-04 16:00:00,15.58463505,0.0001279,53.2173,13.4832,53.0914,322.3787,-0.015179,-0.01071454,0.0,0 STARLINK-4207,1 52871U 22062AT  22247.66667824 -.01071454  00000-0 -15179-1 0  9995,2 52871  53.2173  13.4832 0001279  53.0914 322.3787 15.58463505 12959,6770.24,92.399,392.971,391.239,0.0
52871.0,STARLINK-4207,PAYLOAD,2022-09-04 20:00:01,15.58074783,0.0001337,53.2172,12.6741,58.8265,172.1373,-0.015175,-0.01056901,0.0,0 STARLINK-4207,1 52871U 22062AT  22247.83334491 -.01056901  00000-0 -15175-1 0  9991,2 52871  53.2172  12.6741 0001337  58.8265 172.1373 15.58074783  1300,6771.366,92.422,394.137,392.326,0.0
52871.0,STARLINK-4207,PAYLOAD,2022-09-05 14:00:01,15.56368402,0.0001585,53.2172,9.0439,43.4838,74.3585,-0.016257,-0.01061405,0.0,0 STARLINK-4207,1 52871U 22062AT  22248.58334491 -.01061405  00000-0 -16257-1 0  9991,2 52871  53.2172   9.0439 0001585  43.4838  74.3585 15.56368402 13094,6776.315,92.523,399.254,397.106,0.0
52871.0,STARLINK-4207,PAYLOAD,2022-09-05 22:00:00,15.55607192,0.0001538,53.2164,7.4351,52.2295,133.8538,-0.016685,-0.0105906,0.0,0 STARLINK-4207,1 52871U 22062AT  22248.91667824 -.01059060  00000-0 -16685-1 0  9996,2 52871  53.2164   7.4351 0001538  52.2295 133.8538 15.55607192  1304,6778.525,92.568,401.4330000000001,399.348,0.0
52871.0,STARLINK-4207,PAYLOAD,2022-09-06 12:00:00,15.54277957,0.0001619,53.2174,4.6196,45.699,167.6105,-0.017497,-0.01057467,0.0,0 STARLINK-4207,1 52871U 22062AT  22249.50001157 -.01057467  00000-0 -17497-1 0  9994,2 52871  53.2174   4.6196 0001619  45.6990 167.6105 15.54277957 13241,6782.389,92.648,405.352,403.156,0.0
52871.0,STARLINK-4207,PAYLOAD,2022-09-06 14:00:01,15.54090147,0.0001483,53.2172,4.2186,41.9504,277.8764,-0.017687,-0.0106118,0.0,0 STARLINK-4207,1 52871U 22062AT  22249.58334491 -.01061180  00000-0 -17687-1 0  9990,2 52871  53.2172   4.2186 0001483  41.9504 277.8764 15.54090147  1306,6782.936,92.659,405.807,403.795,0.0
52871.0,STARLINK-4207,PAYLOAD,2022-09-06 22:00:00,15.53397949,0.0001549,53.2166,2.6151,31.5862,353.7085,-0.019806,-0.01149053,0.0,0 STARLINK-4207,1 52871U 22062AT  22249.91667824 -.01149053  00000-0 -19806-1 0  9997,2 52871  53.2166   2.6151 0001549  31.5862 353.7085 15.53397949  1307,6784.951,92.7,407.867,405.765,0.0
52871.0,STARLINK-4207,PAYLOAD,2022-09-07 04:00:00,15.52758779,0.0001422,53.2173,1.4097,39.0213,304.8387,-0.018499,-0.0105747999999999,0.0,0 STARLINK-4207,1 52871U 22062AT  22250.16667824 -.01057480  00000-0 -18499-1 0  9995,2 52871  53.2173   1.4097 0001422  39.0213 304.8387 15.52758779 13344,6786.812,92.738,409.643,407.712,0.0
52871.0,STARLINK-4207,PAYLOAD,2022-09-07 14:00:01,15.5182827,0.0001498,53.2171,359.4114,49.0576,104.5296,-0.019602,-0.01080983,0.0,0 STARLINK-4207,1 52871U 22062AT  22250.58334491 -.01080983  00000-0 -19602-1 0  9993,2 52871  53.2171 359.4114 0001498  49.0576 104.5296 15.51828270  1304,6789.525,92.794,412.407,410.37300000000016,0.0
52871.0,STARLINK-4207,PAYLOAD,2022-09-07 22:00:00,15.51037294,0.0001436,53.2172,357.8105,54.7606,161.6053,-0.019116,-0.01029492,0.0,0 STARLINK-4207,1 52871U 22062AT  22250.91667824 -.01029492  00000-0 -19116-1 0  9997,2 52871  53.2172 357.8105 0001436  54.7606 161.6053 15.51037294  1309,6791.833000000001,92.841,414.674,412.723,0.0
52871.0,STARLINK-4207,PAYLOAD,2022-09-08 06:00:00,15.50204682,0.0001438,53.2174,356.213,56.1954,222.0274,-0.0077577,-0.00422586,0.0,0 STARLINK-4207,1 52871U 22062AT  22251.25001157 -.00422586  00000-0 -77577-2 0  9992,2 52871  53.2174 356.2130 0001438  56.1954 222.0274 15.50204682 13515,6794.265,92.891,417.107,415.153,0.0
52871.0,STARLINK-4207,PAYLOAD,2022-09-08 14:00:01,15.4994678,0.0001604,53.2173,354.6205,40.2118,299.1075,-0.0028915,-0.00161578,0.0,0 STARLINK-4207,1 52871U 22062AT  22251.58334491 -.00161578  00000-0 -28915-2 0  9991,2 52871  53.2173 354.6205 0001604  40.2118 299.1075 15.49946780  1308,6795.019,92.906,417.974,415.794,0.0
52871.0,STARLINK-4207,PAYLOAD,2022-09-08 22:00:00,15.49874193,0.0001626,53.2163,353.0279,38.4747,1.8165,-0.0133789999999999,-0.00695533,0.0,0 STARLINK-4207,1 52871U 22062AT  22251.91667824 -.00695533  00000-0 -13379-1 0  9997,2 52871  53.2163 353.0279 0001626  38.4747   1.8165 15.49874193  1308,6795.231,92.911,418.201,415.991,0.0
52871.0,STARLINK-4207,PAYLOAD,2022-09-09 06:00:00,15.49280871,0.0001658,53.2163,351.4288,38.1508,62.8129,-0.017408,-0.00880102,0.0,0 STARLINK-4207,1 52871U 22062AT  22252.25001157 -.00880102  00000-0 -17408-1 0  9991,2 52871  53.2163 351.4288 0001658  38.1508  62.8129 15.49280871 13660,6796.965999999999,92.946,419.957,417.704,0.0
